NEE-02 KRYSAOR          
1 39441U 13066AB  26068.37805844  .00004234  00000+0  46919-3 0  9992
2 39441  97.8816   8.3817 0067760  38.0821 322.5155 14.86160783661377
STARLINK-34007          
1 63868U 25094E   26068.85516420 -.00011983  00000+0 -99610-3 0  9995
2 63868  70.0017 234.2102 0004582 277.8261  82.2378 14.98405216 47229
